[{"OBJECT_NAME":"POLYITAN-1","OBJECT_ID":"2014-033AJ","EPOCH":"2026-03-09T22:27:50.258304","MEAN_MOTION":15.29568085,"ECCENTRICITY":0.00093607,"INCLINATION":98.1053,"RA_OF_ASC_NODE":86.0432,"ARG_OF_PERICENTER":127.248,"MEAN_ANOMALY":232.9614,"EPHEMERIS_TYPE":0,"CLASSIFICATION_TYPE":"U","NORAD_CAT_ID":40042,"ELEMENT_SET_NO":999,"REV_AT_EPOCH":63840,"BSTAR":0.00083772474,"MEAN_MOTION_DOT":0.00024003,"MEAN_MOTION_DDOT":0},{"OBJECT_NAME":"STARLINK-33731","OBJECT_ID":"2025-070R","EPOCH":"2026-03-09T19:58:40.122048","MEAN_MOTION":15.2756587,"ECCENTRICITY":0.00016785,"INCLINATION":43.001,"RA_OF_ASC_NODE":259.3917,"ARG_OF_PERICENTER":276.4294,"MEAN_ANOMALY":83.6366,"EPHEMERIS_TYPE":0,"CLASSIFICATION_TYPE":"U","NORAD_CAT_ID":63475,"ELEMENT_SET_NO":999,"REV_AT_EPOCH":5299,"BSTAR":0.00092515326,"MEAN_MOTION_DOT":0.00025273,"MEAN_MOTION_DDOT":0}]
